NORAD_CAT_ID,OBJECT_NAME,OBJECT_TYPE,EPOCH,MEAN_MOTION,ECCENTRICITY,INCLINATION,RA_OF_ASC_NODE,ARG_OF_PERICENTER,MEAN_ANOMALY,BSTAR,MEAN_MOTION_DOT,MEAN_MOTION_DDOT,TLE_LINE0,TLE_LINE1,TLE_LINE2,SEMIMAJOR_AXIS,PERIOD,APOGEE,PERIGEE,DECAYED
56452.0,STARLINK-5986,PAYLOAD,2024-06-02 22:18:57,14.98334793,0.0002954,70.0002,330.2713,271.1065,88.9755,4.5819e-05,4.54e-06,0.0,0 STARLINK-5986,1 56452U 23064E   24154.92983240  .00000454  00000-0  45819-4 0  9994,2 56452  70.0002 330.2713 0002954 271.1065  88.9755 14.98334793 58662,6950.178,96.107,574.096,569.99,0.0
56452.0,STARLINK-5986,PAYLOAD,2024-06-03 12:44:10,14.98330456,0.0002998,70.0002,328.7563,270.2086,89.873,6.9009e-05,7.31e-06,0.0,0 STARLINK-5986,1 56452U 23064E   24155.53067495  .00000731  00000-0  69009-4 0  9992,2 56452  70.0002 328.7563 0002998 270.2086  89.8730 14.98330456 59114,6950.191,96.107,574.14,569.973,0.0
56452.0,STARLINK-5986,PAYLOAD,2024-06-03 17:32:34,14.98331583,0.0002993,70.0003,328.2514,269.6439,90.4378,7.8392e-05,8.43e-06,0.0,0 STARLINK-5986,1 56452U 23064E   24155.73095403  .00000843  00000-0  78392-4 0  9993,2 56452  70.0003 328.2514 0002993 269.6439  90.4378 14.98331583 58785,6950.188,96.107,574.133,569.973,0.0
56452.0,STARLINK-5986,PAYLOAD,2024-06-04 11:10:03,14.98332831,0.0002932,70.001,326.3997,270.7003,89.3821,6.0274e-05,6.26e-06,0.0,0 STARLINK-5986,1 56452U 23064E   24156.46531326  .00000626  00000-0  60274-4 0  9992,2 56452  70.0010 326.3997 0002932 270.7003  89.3821 14.98332831 58899,6950.184,96.107,574.087,570.011,0.0
56452.0,STARLINK-5986,PAYLOAD,2024-06-04 20:46:51,14.98335271,0.0003002,70.0023,325.3901,269.6138,90.4677,7.1601e-05,7.62e-06,0.0,0 STARLINK-5986,1 56452U 23064E   24156.86587044  .00000762  00000-0  71601-4 0  9991,2 56452  70.0023 325.3901 0003002 269.6138  90.4677 14.98335271 59313,6950.177,96.107,574.128,569.955,0.0
56452.0,STARLINK-5986,PAYLOAD,2024-06-05 11:12:04,14.98318797,0.0003451,70.0018,323.8706,267.5794,92.497,0.00018433,2.106e-05,0.0,0 STARLINK-5986,1 56452U 23064E   24157.46671622  .00002106  00000-0  18433-3 0  9991,2 56452  70.0018 323.8706 0003451 267.5794  92.4970 14.98318797 59408,6950.228,96.108,574.491,569.694,0.0
56452.0,STARLINK-5986,PAYLOAD,2024-06-05 20:48:52,14.98326846,0.0002888,70.0007,322.8634,270.3693,89.7135,-3.4008e-05,-4.99e-06,0.0,0 STARLINK-5986,1 56452U 23064E   24157.86727866 -.00000499  00000-0 -34008-4 0  9999,2 56452  70.0007 322.8634 0002888 270.3693  89.7135 14.98326846 59101,6950.203,96.107,574.075,570.06,0.0
56452.0,STARLINK-5986,PAYLOAD,2024-06-06 11:14:04,14.98331081,0.0002997,70.0004,321.3486,270.1442,89.9373,8.6507e-05,9.39e-06,0.0,0 STARLINK-5986,1 56452U 23064E   24158.46811332  .00000939  00000-0  86507-4 0  9996,2 56452  70.0004 321.3486 0002997 270.1442  89.9373 14.98331081 59550,6950.19,96.107,574.138,569.972,0.0
56452.0,STARLINK-5986,PAYLOAD,2024-06-06 20:50:53,14.9833576,0.0002887,70.0022,320.3392,269.7223,90.3605,8.7064e-05,9.46e-06,0.0,0 STARLINK-5986,1 56452U 23064E   24158.86867027  .00000946  00000-0  87064-4 0  9999,2 56452  70.0022 320.3392 0002887 269.7223  90.3605 14.98335760 59253,6950.175,96.107,574.047,570.034,0.0
56452.0,STARLINK-5986,PAYLOAD,2024-06-07 20:52:54,14.98330338,0.0002299,70.0047,317.8152,271.5748,88.5148,0.00010994,1.219e-05,0.0,0 STARLINK-5986,1 56452U 23064E   24159.87007427  .00001219  00000-0  10994-3 0  9992,2 56452  70.0047 317.8152 0002299 271.5748  88.5148 14.98330338 59768,6950.192,96.107,573.655,570.459,0.0
56452.0,STARLINK-5986,PAYLOAD,2024-06-08 11:18:06,14.98334677,0.0002882,69.9996,316.2994,272.7035,87.3794,3.0863e-05,2.75e-06,0.0,0 STARLINK-5986,1 56452U 23064E   24160.47091265  .00000275  00000-0  30863-4 0  9992,2 56452  69.9996 316.2994 0002882 272.7035  87.3794 14.98334677 59499,6950.178,96.107,574.046,570.04,0.0
56452.0,STARLINK-5986,PAYLOAD,2024-06-08 20:54:54,14.98341538,0.0002809,69.9996,315.2895,272.4873,87.5965,9.0361e-05,9.86e-06,0.0,0 STARLINK-5986,1 56452U 23064E   24160.87146517  .00000986  00000-0  90361-4 0  9995,2 56452  69.9996 315.2895 0002809 272.4873  87.5965 14.98341538 59917,6950.157,96.106,573.975,570.07,0.0
56452.0,STARLINK-5986,PAYLOAD,2024-06-09 11:20:08,14.98327811,0.0002699,70.0015,313.7756,270.5943,89.4907,1.3467e-05,6.8e-07,0.0,0 STARLINK-5986,1 56452U 23064E   24161.47231576  .00000068  00000-0  13467-4 0  9995,2 56452  70.0015 313.7756 0002699 270.5943  89.4907 14.98327811 60002,6950.2,96.107,573.941,570.189,0.0
56452.0,STARLINK-5986,PAYLOAD,2024-06-09 20:56:56,14.98322858,0.0003068,70.0017,312.7652,271.2778,88.8029,-3.9136e-05,-5.6e-06,0.0,0 STARLINK-5986,1 56452U 23064E   24161.87288066 -.00000560  00000-0 -39136-4 0  9995,2 56452  70.0017 312.7652 0003068 271.2778  88.8029 14.98322858 59702,6950.215,96.107,574.212,569.948,0.0
56452.0,STARLINK-5986,PAYLOAD,2024-06-10 12:58:16,14.98331956,0.000306,70.0002,311.0816,269.4168,90.664,8.1283e-05,8.77e-06,0.0,0 STARLINK-5986,1 56452U 23064E   24162.54047292  .00000877  00000-0  81283-4 0  9993,2 56452  70.0002 311.0816 0003060 269.4168  90.6640 14.98331956 60165,6950.187,96.107,574.179,569.925,0.0
56452.0,STARLINK-5986,PAYLOAD,2024-06-10 14:34:24,14.983323,0.0003052,70.0004,310.9133,269.3919,90.6891,8.5574e-05,9.28e-06,0.0,0 STARLINK-5986,1 56452U 23064E   24162.60723284  .00000928  00000-0  85574-4 0  9996,2 56452  70.0004 310.9133 0003052 269.3919  90.6891 14.98332300 59813,6950.186,96.107,574.172,569.93,0.0
56452.0,STARLINK-5986,PAYLOAD,2024-06-10 19:22:48,14.98338177,0.0002926,70.0011,310.4089,268.2473,91.8351,5.4832e-05,5.61e-06,0.0,0 STARLINK-5986,1 56452U 23064E   24162.80750927  .00000561  00000-0  54832-4 0  9998,2 56452  70.0011 310.4089 0002926 268.2473  91.8351 14.98338177 59843,6950.168,96.106,574.066,569.999,0.0
56452.0,STARLINK-5986,PAYLOAD,2024-06-11 03:23:27,14.98395447,0.0002721,70.0003,309.5663,269.9836,90.1011,-0.0010518,-0.00012641,0.0,0 STARLINK-5986,1 56452U 23064E   24163.14129262 -.00012641  00000-0 -10518-2 0  9993,2 56452  70.0003 309.5663 0002721 269.9836  90.1011 14.98395447 60250,6949.991,96.103,573.747,569.964,0.0
56452.0,STARLINK-5986,PAYLOAD,2024-06-11 13:00:18,14.98325844,0.0002981,70.0005,308.5566,267.8628,92.219,0.00014096,1.589e-05,0.0,0 STARLINK-5986,1 56452U 23064E   24163.54187537  .00001589  00000-0  14096-3 0  9999,2 56452  70.0005 308.5566 0002981 267.8628  92.2190 14.98325844 59957,6950.206,96.107,574.143,569.999,0.0
56452.0,STARLINK-5986,PAYLOAD,2024-06-11 19:24:50,14.98330296,0.0002782,70.0008,307.8825,266.5273,93.5568,0.00017498,1.995e-05,0.0,0 STARLINK-5986,1 56452U 23064E   24163.80891207  .00001995  00000-0  17498-3 0  9994,2 56452  70.0008 307.8825 0002782 266.5273  93.5568 14.98330296 60357,6950.192,96.107,573.991,570.123,0.0
56452.0,STARLINK-5986,PAYLOAD,2024-06-12 13:02:19,14.98325056,0.0002997,70.0007,306.0311,269.1093,90.9723,3.6943e-05,3.48e-06,0.0,0 STARLINK-5986,1 56452U 23064E   24164.54327792  .00000348  00000-0  36943-4 0  9997,2 56452  70.0007 306.0311 0002997 269.1093  90.9723 14.98325056 60468,6950.208,96.107,574.156,569.99,0.0
56452.0,STARLINK-5986,PAYLOAD,2024-06-12 19:26:51,14.98327711,0.0002939,70.0008,305.3589,270.0216,90.0606,-2.6855e-05,-4.13e-06,0.0,0 STARLINK-5986,1 56452U 23064E   24164.81031816 -.00000413  00000-0 -26855-4 0  9992,2 56452  70.0008 305.3589 0002939 270.0216  90.0606 14.98327711 60148,6950.2,96.107,574.108,570.022,0.0
56452.0,STARLINK-5986,PAYLOAD,2024-06-13 11:28:11,14.98331164,0.0003076,70.0004,303.6755,271.566,88.5146,0.00012965,1.454e-05,0.0,0 STARLINK-5986,1 56452U 23064E   24165.47791141  .00001454  00000-0  12965-3 0  9999,2 56452  70.0004 303.6755 0003076 271.5660  88.5146 14.98331164 60601,6950.189,96.107,574.192,569.916,0.0
56452.0,STARLINK-5986,PAYLOAD,2024-06-13 14:40:27,14.98331455,0.0003102,70.0007,303.3389,271.5889,88.4915,0.00012525,1.402e-05,0.0,0 STARLINK-5986,1 56452U 23064E   24165.61143110  .00001402  00000-0  12525-3 0  9997,2 56452  70.0007 303.3389 0003102 271.5889  88.4915 14.98331455 60265,6950.188,96.107,574.209,569.897,0.0
56452.0,STARLINK-5986,PAYLOAD,2024-06-13 19:28:51,14.98334009,0.000295,70.0006,302.8341,270.424,89.6581,0.00017779,2.029e-05,0.0,0 STARLINK-5986,1 56452U 23064E   24165.81170793  .00002029  00000-0  17779-3 0  9998,2 56452  70.0006 302.8341 0002950 270.4240  89.6581 14.98334009 60298,6950.18,96.107,574.096,569.995,0.0
56452.0,STARLINK-5986,PAYLOAD,2024-06-14 13:06:20,14.98325842,0.0002915,70.0009,300.9828,271.9825,88.1001,7.6217e-05,8.16e-06,0.0,0 STARLINK-5986,1 56452U 23064E   24166.54607536  .00000816  00000-0  76217-4 0  9994,2 56452  70.0009 300.9828 0002915 271.9825  88.1001 14.98325842 60405,6950.206,96.107,574.097,570.045,0.0
56452.0,STARLINK-5986,PAYLOAD,2024-06-14 17:54:44,14.98327927,0.0002889,70.001,300.4779,271.8175,88.2653,9.4761e-05,1.038e-05,0.0,0 STARLINK-5986,1 56452U 23064E   24166.74635397  .00001038  00000-0  94761-4 0  9993,2 56452  70.0010 300.4779 0002889 271.8175  88.2653 14.98327927 60437,6950.199,96.107,574.072,570.056,0.0
56452.0,STARLINK-5986,PAYLOAD,2024-06-15 14:44:29,14.98338502,0.0002906,70.0009,298.2902,266.5331,93.5496,3.474e-05,3.22e-06,0.0,0 STARLINK-5986,1 56452U 23064E   24167.61422656  .00000322  00000-0  34740-4 0  9998,2 56452  70.0009 298.2902 0002906 266.5331  93.5496 14.98338502 60561,6950.167,96.106,574.051,570.012,0.0
56452.0,STARLINK-5986,PAYLOAD,2024-06-15 17:56:45,14.98340487,0.0002883,70.0009,297.9536,266.4294,93.6535,5.6019e-05,5.76e-06,0.0,0 STARLINK-5986,1 56452U 23064E   24167.74774397  .00000576  00000-0  56019-4 0  9998,2 56452  70.0009 297.9536 0002883 266.4294  93.6535 14.98340487 60583,6950.16,96.106,574.029,570.022,0.0
56452.0,STARLINK-5986,PAYLOAD,2024-06-16 14:46:30,14.98332372,0.0002973,70.0004,295.7644,273.1247,86.9572,6.5969e-05,6.94e-06,0.0,0 STARLINK-5986,1 56452U 23064E   24168.61562720  .00000694  00000-0  65969-4 0  9995,2 56452  70.0004 295.7644 0002973 273.1247  86.9572 14.98332372 60712,6950.186,96.107,574.117,569.984,0.0
